{
  "type": "FeatureCollection",
  "features": [
    {
      "type": "Feature",
      "properties": {
        "norad_id": 33376,
        "name": "GALAXY 19 (G-19)",
        "group": "intelsat",
        "lat": 0.025885694722454375,
        "lon": 123.18362658710794,
        "alt_km": 35798.2794715019,
        "timestamp": "2025-12-07T09:35:09.459736+00:00",
        "meta_object_name": "GALAXY 19 (G-19)",
        "meta_object_id": "2008-045A",
        "meta_epoch": "2025-12-06T21:45:55.142208",
        "meta_mean_motion": 1.00270671,
        "meta_eccentricity": 0.00034498,
        "meta_inclination": 0.0242,
        "meta_ra_of_asc_node": 66.0477,
        "meta_arg_of_pericenter": 201.5792,
        "meta_mean_anomaly": 37.7949,
        "meta_ephemeris_type": 0,
        "meta_classification_type": "U",
        "meta_norad_cat_id": 33376,
        "meta_element_set_no": 999,
        "meta_rev_at_epoch": 6297,
        "meta_bstar": 0,
        "meta_mean_motion_dot": -1.33e-06,
        "meta_mean_motion_ddot": 0,
        "tle_line1": "1 33376U 08045A   25340.90688822 -.00000133  00000+0  00000+0 0  9992",
        "tle_line2": "2 33376   0.0242  66.0477 0003449 201.5792  37.7949  1.00270671 62975"
      },
      "geometry": {
        "type": "Point",
        "coordinates": [
          123.18362658710794,
          0.025885694722454375
        ]
      }
    },
    {
      "type": "Feature",
      "properties": {
        "norad_id": 35493,
        "name": "FM-5",
        "group": "intelsat",
        "lat": -0.0027782609043371024,
        "lon": 134.0694708964347,
        "alt_km": 35781.691094447764,
        "timestamp": "2025-12-07T09:35:09.459748+00:00",
        "meta_object_name": "FM-5",
        "meta_object_id": "2009-034A",
        "meta_epoch": "2025-12-06T21:49:02.343360",
        "meta_mean_motion": 1.00277728,
        "meta_eccentricity": 7.015e-05,
        "meta_inclination": 0.019,
        "meta_ra_of_asc_node": 289.05,
        "meta_arg_of_pericenter": 225.4492,
        "meta_mean_anomaly": 162.5579,
        "meta_ephemeris_type": 0,
        "meta_classification_type": "U",
        "meta_norad_cat_id": 35493,
        "meta_element_set_no": 999,
        "meta_rev_at_epoch": 4471,
        "meta_bstar": 0,
        "meta_mean_motion_dot": -1.95e-06,
        "meta_mean_motion_ddot": 0,
        "tle_line1": "1 35493U 09034A   25340.90905490 -.00000195  00000+0  00000+0 0  9994",
        "tle_line2": "2 35493   0.0190 289.0500 0000701 225.4492 162.5579  1.00277728 44711"
      },
      "geometry": {
        "type": "Point",
        "coordinates": [
          134.0694708964347,
          -0.0027782609043371024
        ]
      }
    },
    {
      "type": "Feature",
      "properties": {
        "norad_id": 36097,
        "name": "INTELSAT 14 (IS-14)",
        "group": "intelsat",
        "lat": -0.006972832206677911,
        "lon": 175.18341640250404,
        "alt_km": 35785.20948364515,
        "timestamp": "2025-12-07T09:35:09.459760+00:00",
        "meta_object_name": "INTELSAT 14 (IS-14)",
        "meta_object_id": "2009-064A",
        "meta_epoch": "2025-12-06T22:00:46.218240",
        "meta_mean_motion": 1.00271017,
        "meta_eccentricity": 0.00027305,
        "meta_inclination": 0.0092,
        "meta_ra_of_asc_node": 346.9491,
        "meta_arg_of_pericenter": 272.5958,
        "meta_mean_anomaly": 101.6074,
        "meta_ephemeris_type": 0,
        "meta_classification_type": "U",
        "meta_norad_cat_id": 36097,
        "meta_element_set_no": 999,
        "meta_rev_at_epoch": 5867,
        "meta_bstar": 0,
        "meta_mean_motion_dot": -2.68e-06,
        "meta_mean_motion_ddot": 0,
        "tle_line1": "1 36097U 09064A   25340.91720160 -.00000268  00000+0  00000+0 0  9999",
        "tle_line2": "2 36097   0.0092 346.9491 0002730 272.5958 101.6074  1.00271017 58678"
      },
      "geometry": {
        "type": "Point",
        "coordinates": [
          175.18341640250404,
          -0.006972832206677911
        ]
      }
    },
    {
      "type": "Feature",
      "properties": {
        "norad_id": 36106,
        "name": "INTELSAT 15 (IS-15)",
        "group": "intelsat",
        "lat": -0.02244349684876405,
        "lon": -54.61998144768522,
        "alt_km": 35779.03339446518,
        "timestamp": "2025-12-07T09:35:09.459772+00:00",
        "meta_object_name": "INTELSAT 15 (IS-15)",
        "meta_object_id": "2009-067A",
        "meta_epoch": "2025-12-06T20:37:38.577792",
        "meta_mean_motion": 1.00270349,
        "meta_eccentricity": 0.00025085,
        "meta_inclination": 0.0163,
        "meta_ra_of_asc_node": 339.434,
        "meta_arg_of_pericenter": 280.7343,
        "meta_mean_anomaly": 210.2915,
        "meta_ephemeris_type": 0,
        "meta_classification_type": "U",
        "meta_norad_cat_id": 36106,
        "meta_element_set_no": 999,
        "meta_rev_at_epoch": 3930,
        "meta_bstar": 0,
        "meta_mean_motion_dot": -1.79e-06,
        "meta_mean_motion_ddot": 0,
        "tle_line1": "1 36106U 09067A   25340.85947428 -.00000179  00000+0  00000+0 0  9995",
        "tle_line2": "2 36106   0.0163 339.4340 0002508 280.7343 210.2915  1.00270349 39307"
      },
      "geometry": {
        "type": "Point",
        "coordinates": [
          -54.61998144768522,
          -0.02244349684876405
        ]
      }
    },
    {
      "type": "Feature",
      "properties": {
        "norad_id": 36131,
        "name": "DIRECTV 12",
        "group": "intelsat",
        "lat": 0.01790106461015994,
        "lon": 117.48628826697895,
        "alt_km": 35787.302417159444,
        "timestamp": "2025-12-07T09:35:09.459784+00:00",
        "meta_object_name": "DIRECTV 12",
        "meta_object_id": "2009-075A",
        "meta_epoch": "2025-12-06T14:53:20.048352",
        "meta_mean_motion": 1.00272184,
        "meta_eccentricity": 4.645e-05,
        "meta_inclination": 0.0503,
        "meta_ra_of_asc_node": 138.3397,
        "meta_arg_of_pericenter": 206.243,
        "meta_mean_anomaly": 211.6829,
        "meta_ephemeris_type": 0,
        "meta_classification_type": "U",
        "meta_norad_cat_id": 36131,
        "meta_element_set_no": 999,
        "meta_rev_at_epoch": 4462,
        "meta_bstar": 0,
        "meta_mean_motion_dot": -9.7e-07,
        "meta_mean_motion_ddot": 0,
        "tle_line1": "1 36131U 09075A   25340.62037093 -.00000097  00000+0  00000+0 0  9994",
        "tle_line2": "2 36131   0.0503 138.3397 0000464 206.2430 211.6829  1.00272184 44629"
      },
      "geometry": {
        "type": "Point",
        "coordinates": [
          117.48628826697895,
          0.01790106461015994
        ]
      }
    },
    {
      "type": "Feature",
      "properties": {
        "norad_id": 36397,
        "name": "INTELSAT 16 (IS-16)",
        "group": "intelsat",
        "lat": 0.0005815639991852831,
        "lon": 143.98363510342367,
        "alt_km": 35790.49756958036,
        "timestamp": "2025-12-07T09:35:09.459796+00:00",
        "meta_object_name": "INTELSAT 16 (IS-16)",
        "meta_object_id": "2010-006A",
        "meta_epoch": "2025-12-06T21:51:47.078784",
        "meta_mean_motion": 1.00271089,
        "meta_eccentricity": 0.00023508,
        "meta_inclination": 0.0123,
        "meta_ra_of_asc_node": 315.5734,
        "meta_arg_of_pericenter": 303.2099,
        "meta_mean_anomaly": 68.9098,
        "meta_ephemeris_type": 0,
        "meta_classification_type": "U",
        "meta_norad_cat_id": 36397,
        "meta_element_set_no": 999,
        "meta_rev_at_epoch": 5772,
        "meta_bstar": 0,
        "meta_mean_motion_dot": -2.39e-06,
        "meta_mean_motion_ddot": 0,
        "tle_line1": "1 36397U 10006A   25340.91096156 -.00000239  00000+0  00000+0 0  9999",
        "tle_line2": "2 36397   0.0123 315.5734 0002350 303.2099  68.9098  1.00271089 57729"
      },
      "geometry": {
        "type": "Point",
        "coordinates": [
          143.98363510342367,
          0.0005815639991852831
        ]
      }
    },
    {
      "type": "Feature",
      "properties": {
        "norad_id": 37185,
        "name": "XM-5",
        "group": "intelsat",
        "lat": 0.0041508519789668664,
        "lon": 104.99335894271636,
        "alt_km": 35783.12517902773,
        "timestamp": "2025-12-07T09:35:09.459807+00:00",
        "meta_object_name": "XM-5",
        "meta_object_id": "2010-053A",
        "meta_epoch": "2025-12-06T21:40:40.643616",
        "meta_mean_motion": 1.00268224,
        "meta_eccentricity": 0.0001708,
        "meta_inclination": 0.0621,
        "meta_ra_of_asc_node": 273.0037,
        "meta_arg_of_pericenter": 248.6895,
        "meta_mean_anomaly": 124.2219,
        "meta_ephemeris_type": 0,
        "meta_classification_type": "U",
        "meta_norad_cat_id": 37185,
        "meta_element_set_no": 999,
        "meta_rev_at_epoch": 5555,
        "meta_bstar": 0,
        "meta_mean_motion_dot": -1.7e-07,
        "meta_mean_motion_ddot": 0,
        "tle_line1": "1 37185U 10053A   25340.90324819 -.00000017  00000+0  00000+0 0  9990",
        "tle_line2": "2 37185   0.0621 273.0037 0001708 248.6895 124.2219  1.00268224 55551"
      },
      "geometry": {
        "type": "Point",
        "coordinates": [
          104.99335894271636,
          0.0041508519789668664
        ]
      }
    }
  ]
}